{
  "type": "FeatureCollection",
  "features": [
    {
      "type": "Feature",
      "properties": {
        "norad_id": 40362,
        "name": "YAOGAN-26",
        "group": "resource",
        "lat": 24.43568158914516,
        "lon": 173.7380481370299,
        "alt_km": 450.151773772066,
        "timestamp": "2025-12-15T22:44:28.580610+00:00",
        "meta_object_name": "YAOGAN-26",
        "meta_object_id": "2014-088A",
        "meta_epoch": "2025-12-15T06:28:07.707360",
        "meta_mean_motion": 15.39405319,
        "meta_eccentricity": 0.00059124,
        "meta_inclination": 97.0643,
        "meta_ra_of_asc_node": 349.8538,
        "meta_arg_of_pericenter": 22.1831,
        "meta_mean_anomaly": 337.967,
        "meta_ephemeris_type": 0,
        "meta_classification_type": "U",
        "meta_norad_cat_id": 40362,
        "meta_element_set_no": 999,
        "meta_rev_at_epoch": 60933,
        "meta_bstar": 0.00050378043,
        "meta_mean_motion_dot": 0.0001967,
        "meta_mean_motion_ddot": 0,
        "tle_line1": "1 40362U 14088A   25349.26953365  .00019670  00000+0  50378-3 0  9996",
        "tle_line2": "2 40362  97.0643 349.8538 0005912  22.1831 337.9670 15.39405319609336"
      },
      "geometry": {
        "type": "Point",
        "coordinates": [
          173.7380481370299,
          24.43568158914516
        ]
      }
    },
    {
      "type": "Feature",
      "properties": {
        "norad_id": 40376,
        "name": "SMAP",
        "group": "resource",
        "lat": -66.36302049116009,
        "lon": 155.5633475899865,
        "alt_km": 690.4173769882627,
        "timestamp": "2025-12-15T22:44:28.580621+00:00",
        "meta_object_name": "SMAP",
        "meta_object_id": "2015-003A",
        "meta_epoch": "2025-12-15T06:50:36.189312",
        "meta_mean_motion": 14.63348205,
        "meta_eccentricity": 0.00012133,
        "meta_inclination": 98.1291,
        "meta_ra_of_asc_node": 353.9723,
        "meta_arg_of_pericenter": 90.4786,
        "meta_mean_anomaly": 269.6555,
        "meta_ephemeris_type": 0,
        "meta_classification_type": "U",
        "meta_norad_cat_id": 40376,
        "meta_element_set_no": 999,
        "meta_rev_at_epoch": 58072,
        "meta_bstar": 0.00012530521,
        "meta_mean_motion_dot": 6e-06,
        "meta_mean_motion_ddot": 0,
        "tle_line1": "1 40376U 15003A   25349.28514108  .00000600  00000+0  12531-3 0  9991",
        "tle_line2": "2 40376  98.1291 353.9723 0001213  90.4786 269.6555 14.63348205580721"
      },
      "geometry": {
        "type": "Point",
        "coordinates": [
          155.5633475899865,
          -66.36302049116009
        ]
      }
    },
    {
      "type": "Feature",
      "properties": {
        "norad_id": 40536,
        "name": "KOMPSAT-3A",
        "group": "resource",
        "lat": 30.15070318956669,
        "lon": 148.96644541402875,
        "alt_km": 429.6704365186524,
        "timestamp": "2025-12-15T22:44:28.580631+00:00",
        "meta_object_name": "KOMPSAT-3A",
        "meta_object_id": "2015-014A",
        "meta_epoch": "2025-12-15T08:05:53.810304",
        "meta_mean_motion": 15.44046453,
        "meta_eccentricity": 0.00051198,
        "meta_inclination": 97.6784,
        "meta_ra_of_asc_node": 323.8277,
        "meta_arg_of_pericenter": 120.967,
        "meta_mean_anomaly": 239.2081,
        "meta_ephemeris_type": 0,
        "meta_classification_type": "U",
        "meta_norad_cat_id": 40536,
        "meta_element_set_no": 999,
        "meta_rev_at_epoch": 59335,
        "meta_bstar": 0.00031820115,
        "meta_mean_motion_dot": 0.00014446,
        "meta_mean_motion_ddot": 0,
        "tle_line1": "1 40536U 15014A   25349.33742836  .00014446  00000+0  31820-3 0  9993",
        "tle_line2": "2 40536  97.6784 323.8277 0005119 120.9670 239.2081 15.44046453593350"
      },
      "geometry": {
        "type": "Point",
        "coordinates": [
          148.96644541402875,
          30.15070318956669
        ]
      }
    },
    {
      "type": "Feature",
      "properties": {
        "norad_id": 40697,
        "name": "SENTINEL-2A",
        "group": "resource",
        "lat": 76.10028249226113,
        "lon": -80.02892535245685,
        "alt_km": 781.0360016322547,
        "timestamp": "2025-12-15T22:44:28.580641+00:00",
        "meta_object_name": "SENTINEL-2A",
        "meta_object_id": "2015-028A",
        "meta_epoch": "2025-12-15T08:50:40.608384",
        "meta_mean_motion": 14.30814698,
        "meta_eccentricity": 0.00010823,
        "meta_inclination": 98.5689,
        "meta_ra_of_asc_node": 61.8632,
        "meta_arg_of_pericenter": 88.7164,
        "meta_mean_anomaly": 271.4143,
        "meta_ephemeris_type": 0,
        "meta_classification_type": "U",
        "meta_norad_cat_id": 40697,
        "meta_element_set_no": 999,
        "meta_rev_at_epoch": 54744,
        "meta_bstar": 8.6124519e-05,
        "meta_mean_motion_dot": 1.82e-06,
        "meta_mean_motion_ddot": 0,
        "tle_line1": "1 40697U 15028A   25349.36852556  .00000182  00000+0  86125-4 0  9991",
        "tle_line2": "2 40697  98.5689  61.8632 0001082  88.7164 271.4143 14.30814698547444"
      },
      "geometry": {
        "type": "Point",
        "coordinates": [
          -80.02892535245685,
          76.10028249226113
        ]
      }
    },
    {
      "type": "Feature",
      "properties": {
        "norad_id": 40701,
        "name": "GAOFEN-8",
        "group": "resource",
        "lat": -48.9779577114277,
        "lon": 177.17982236256387,
        "alt_km": 464.9810130496735,
        "timestamp": "2025-12-15T22:44:28.580652+00:00",
        "meta_object_name": "GAOFEN-8",
        "meta_object_id": "2015-030A",
        "meta_epoch": "2025-12-15T08:54:33.998112",
        "meta_mean_motion": 15.38639417,
        "meta_eccentricity": 0.00116918,
        "meta_inclination": 97.6907,
        "meta_ra_of_asc_node": 167.6393,
        "meta_arg_of_pericenter": 129.3041,
        "meta_mean_anomaly": 230.9242,
        "meta_ephemeris_type": 0,
        "meta_classification_type": "U",
        "meta_norad_cat_id": 40701,
        "meta_element_set_no": 999,
        "meta_rev_at_epoch": 58311,
        "meta_bstar": 0.00033430774,
        "meta_mean_motion_dot": 0.00012705,
        "meta_mean_motion_ddot": 0,
        "tle_line1": "1 40701U 15030A   25349.37122683  .00012705  00000+0  33431-3 0  9997",
        "tle_line2": "2 40701  97.6907 167.6393 0011691 129.3041 230.9242 15.38639417583112"
      },
      "geometry": {
        "type": "Point",
        "coordinates": [
          177.17982236256387,
          -48.9779577114277
        ]
      }
    },
    {
      "type": "Feature",
      "properties": {
        "norad_id": 40718,
        "name": "CARBONITE 1 (CBNT-1)",
        "group": "resource",
        "lat": -41.69251943085882,
        "lon": 177.71735660176554,
        "alt_km": 635.8557127345803,
        "timestamp": "2025-12-15T22:44:28.580662+00:00",
        "meta_object_name": "CARBONITE 1 (CBNT-1)",
        "meta_object_id": "2015-032D",
        "meta_epoch": "2025-12-15T08:21:18.565056",
        "meta_mean_motion": 14.827602,
        "meta_eccentricity": 0.00146034,
        "meta_inclination": 97.6405,
        "meta_ra_of_asc_node": 170.2772,
        "meta_arg_of_pericenter": 172.3961,
        "meta_mean_anomaly": 187.7478,
        "meta_ephemeris_type": 0,
        "meta_classification_type": "U",
        "meta_norad_cat_id": 40718,
        "meta_element_set_no": 999,
        "meta_rev_at_epoch": 56209,
        "meta_bstar": 0.00028447412,
        "meta_mean_motion_dot": 2.252e-05,
        "meta_mean_motion_ddot": 0,
        "tle_line1": "1 40718U 15032D   25349.34813154  .00002252  00000+0  28447-3 0  9991",
        "tle_line2": "2 40718  97.6405 170.2772 0014603 172.3961 187.7478 14.82760200562096"
      },
      "geometry": {
        "type": "Point",
        "coordinates": [
          177.71735660176554,
          -41.69251943085882
        ]
      }
    },
    {
      "type": "Feature",
      "properties": {
        "norad_id": 40878,
        "name": "YAOGAN-27",
        "group": "resource",
        "lat": -71.33682792807853,
        "lon": 127.56995956462269,
        "alt_km": 1201.7798796516545,
        "timestamp": "2025-12-15T22:44:28.580673+00:00",
        "meta_object_name": "YAOGAN-27",
        "meta_object_id": "2015-040A",
        "meta_epoch": "2025-12-15T08:40:52.792896",
        "meta_mean_motion": 13.16059235,
        "meta_eccentricity": 0.00076308,
        "meta_inclination": 100.1012,
        "meta_ra_of_asc_node": 338.8634,
        "meta_arg_of_pericenter": 280.5485,
        "meta_mean_anomaly": 79.4769,
        "meta_ephemeris_type": 0,
        "meta_classification_type": "U",
        "meta_norad_cat_id": 40878,
        "meta_element_set_no": 999,
        "meta_rev_at_epoch": 49348,
        "meta_bstar": -0.00039165459,
        "meta_mean_motion_dot": -1.91e-06,
        "meta_mean_motion_ddot": 0,
        "tle_line1": "1 40878U 15040A   25349.36172214 -.00000191  00000+0 -39165-3 0  9995",
        "tle_line2": "2 40878 100.1012 338.8634 0007630 280.5485  79.4769 13.16059235493482"
      },
      "geometry": {
        "type": "Point",
        "coordinates": [
          127.56995956462269,
          -71.33682792807853
        ]
      }
    }
  ]
}